[{"OBJECT_NAME":"STARLINK-6305","OBJECT_ID":"2023-061W","EPOCH":"2026-03-08T09:13:35.915808","MEAN_MOTION":15.02540998,"ECCENTRICITY":0.00014665,"INCLINATION":43.004,"RA_OF_ASC_NODE":191.9609,"ARG_OF_PERICENTER":265.0576,"MEAN_ANOMALY":95.0099,"EPHEMERIS_TYPE":0,"CLASSIFICATION_TYPE":"U","NORAD_CAT_ID":56394,"ELEMENT_SET_NO":999,"REV_AT_EPOCH":15670,"BSTAR":6.9100854e-5,"MEAN_MOTION_DOT":7.3e-6,"MEAN_MOTION_DDOT":0},{"OBJECT_NAME":"FENGYUN 1C DEB","OBJECT_ID":"1999-025FL","EPOCH":"2026-03-09T22:45:53.964000","MEAN_MOTION":14.6476587,"ECCENTRICITY":0.01924493,"INCLINATION":98.0475,"RA_OF_ASC_NODE":57.7214,"ARG_OF_PERICENTER":300.1723,"MEAN_ANOMALY":112.544,"EPHEMERIS_TYPE":0,"CLASSIFICATION_TYPE":"U","NORAD_CAT_ID":29866,"ELEMENT_SET_NO":999,"REV_AT_EPOCH":1603,"BSTAR":0.0005168677,"MEAN_MOTION_DOT":3.558e-5,"MEAN_MOTION_DDOT":0}]
